[{"OBJECT_NAME":"STARLINK-35156","OBJECT_ID":"2025-207R","EPOCH":"2026-03-09T17:48:37.226592","MEAN_MOTION":15.05635725,"ECCENTRICITY":1.488e-5,"INCLINATION":97.6035,"RA_OF_ASC_NODE":138.7823,"ARG_OF_PERICENTER":115.2803,"MEAN_ANOMALY":244.8439,"EPHEMERIS_TYPE":0,"CLASSIFICATION_TYPE":"U","NORAD_CAT_ID":65607,"ELEMENT_SET_NO":999,"REV_AT_EPOCH":2827,"BSTAR":0.00084245249,"MEAN_MOTION_DOT":0.00012111,"MEAN_MOTION_DDOT":0},{"OBJECT_NAME":"UNKNOWN","OBJECT_ID":"","EPOCH":"2026-03-08T12:59:39.172704","MEAN_MOTION":15.0131728,"ECCENTRICITY":0.00204305,"INCLINATION":86.3534,"RA_OF_ASC_NODE":358.469,"ARG_OF_PERICENTER":121.5673,"MEAN_ANOMALY":238.7558,"EPHEMERIS_TYPE":0,"CLASSIFICATION_TYPE":"U","NORAD_CAT_ID":270086,"ELEMENT_SET_NO":999,"REV_AT_EPOCH":9441,"BSTAR":0.0053525659,"MEAN_MOTION_DOT":0.00069778,"MEAN_MOTION_DDOT":0}]
